0 ARIANE 1 DEB
1 39105U 86019VT  13284.34669267  .00000411  00000-0  25094-3 0   320
2 39105 099.0622 337.4241 0122719 050.2791 310.9139 14.07803157541527
0 ARIANE 1 DEB
1 39105U 86019VT  13287.33167502  .00000455  00000-0  27558-3 0   333
2 39105 099.0604 340.4127 0122537 042.0978 318.9630 14.07807150541945
0 ARIANE 1 DEB
1 39105U 86019VT  13290.38771766  .00000497  00000-0  29862-3 0   342
2 39105 099.0571 343.4702 0122405 033.4921 327.3948 14.07810906542373
0 ARIANE 1 DEB
1 39105U 86019VT  13292.37769646  .00000468  00000-0  28289-3 0   358
2 39105 099.0534 345.4546 0122344 027.1977 333.5524 14.07812423542659
0 ARIANE 1 DEB
1 39105U 86019VT  13295.00730678  .00000393  00000-0  24187-3 0   365
2 39105 099.0566 348.1024 0121320 020.4589 340.1453 14.07813504543021
